{"type": "FeatureCollection", "features": [ {"type": "Feature", "properties": {"norad_id": 66808, "name": "STARLINK-36071", "group": "last-30-days", "lat": -37.349633287375966, "lon": 112.11065495433904, "alt_km": 331.7167922507606, "timestamp": "2025-12-15T04:01:19.181111+00:00", "meta": {"OBJECT_NAME": "STARLINK-36071", "OBJECT_ID": "2025-278T", "EPOCH": "2025-12-14T06:00:02.999808", "MEAN_MOTION": 15.82820449, "ECCENTRICITY": 0.00018723, "INCLINATION": 42.9972, "RA_OF_ASC_NODE": 242.7395, "ARG_OF_PERICENTER": 278.7888, "MEAN_ANOMALY": 133.6737, "EPHEMERIS_TYPE": 0, "CLASSIFICATION_TYPE": "U", "NORAD_CAT_ID": 66808, "ELEMENT_SET_NO": 999, "REV_AT_EPOCH": 320, "BSTAR": -0.0068903922, "MEAN_MOTION_DOT": -0.01323682, "MEAN_MOTION_DDOT": 0}, "tle": {"line1": "1 66808U 25278T   25348.25003472 -.01323682  00000+0 -68904-2 0  9992", "line2": "2 66808  42.9972 242.7395 0001872 278.7888 133.6737 15.82820449  3209"}}, "geometry": {"type": "Point", "coordinates": [112.11065495433904, -37.349633287375966]}}, {"type": "Feature", "properties": {"norad_id": 66809, "name": "STARLINK-35979", "group": "last-30-days", "lat": -39.808891076375645, "lon": 120.54388769754667, "alt_km": 332.19754360938714, "timestamp": "2025-12-15T04:01:19.181121+00:00", "meta": {"OBJECT_NAME": "STARLINK-35979", "OBJECT_ID": "2025-278U", "EPOCH": "2025-12-14T06:00:02.999808", "MEAN_MOTION": 15.8273016, "ECCENTRICITY": 0.00018348, "INCLINATION": 42.9971, "RA_OF_ASC_NODE": 242.7208, "ARG_OF_PERICENTER": 281.8414, "MEAN_ANOMALY": 138.0756, "EPHEMERIS_TYPE": 0, "CLASSIFICATION_TYPE": "U", "NORAD_CAT_ID": 66809, "ELEMENT_SET_NO": 999, "REV_AT_EPOCH": 320, "BSTAR": -0.007085003, "MEAN_MOTION_DOT": -0.01351192, "MEAN_MOTION_DDOT": 0}, "tle": {"line1": "1 66809U 25278U   25348.25003472 -.01351192  00000+0 -70850-2 0  9993", "line2": "2 66809  42.9971 242.7208 0001834 281.8414 138.0756 15.82730160  3200"}}, "geometry": {"type": "Point", "coordinates": [120.54388769754667, -39.808891076375645]}}, {"type": "Feature", "properties": {"norad_id": 66810, "name": "STARLINK-36046", "group": "last-30-days", "lat": -38.2492724781601, "lon": 114.89870340731889, "alt_km": 331.8290133227729, "timestamp": "2025-12-15T04:01:19.181141+00:00", "meta": {"OBJECT_NAME": "STARLINK-36046", "OBJECT_ID": "2025-278V", "EPOCH": "2025-12-14T06:00:02.999808", "MEAN_MOTION": 15.82786414, "ECCENTRICITY": 0.00018608, "INCLINATION": 42.9974, "RA_OF_ASC_NODE": 242.7336, "ARG_OF_PERICENTER": 277.4249, "MEAN_ANOMALY": 137.5655, "EPHEMERIS_TYPE": 0, "CLASSIFICATION_TYPE": "U", "NORAD_CAT_ID": 66810, "ELEMENT_SET_NO": 999, "REV_AT_EPOCH": 297, "BSTAR": -0.0069501294, "MEAN_MOTION_DOT": -0.01331821, "MEAN_MOTION_DDOT": 0}, "tle": {"line1": "1 66810U 25278V   25348.25003472 -.01331821  00000+0 -69501-2 0  9993", "line2": "2 66810  42.9974 242.7336 0001860 277.4249 137.5655 15.82786414  2971"}}, "geometry": {"type": "Point", "coordinates": [114.89870340731889, -38.2492724781601]}}, {"type": "Feature", "properties": {"norad_id": 66811, "name": "STARLINK-36045", "group": "last-30-days", "lat": -39.08807246235046, "lon": 117.77967984585239, "alt_km": 331.9718719362945, "timestamp": "2025-12-15T04:01:19.181152+00:00", "meta": {"OBJECT_NAME": "STARLINK-36045", "OBJECT_ID": "2025-278W", "EPOCH": "2025-12-14T06:00:02.999808", "MEAN_MOTION": 15.82751398, "ECCENTRICITY": 0.00018449, "INCLINATION": 42.9974, "RA_OF_ASC_NODE": 242.7272, "ARG_OF_PERICENTER": 277.3825, "MEAN_ANOMALY": 140.1579, "EPHEMERIS_TYPE": 0, "CLASSIFICATION_TYPE": "U", "NORAD_CAT_ID": 66811, "ELEMENT_SET_NO": 999, "REV_AT_EPOCH": 320, "BSTAR": -0.0070050971, "MEAN_MOTION_DOT": -0.0133906, "MEAN_MOTION_DDOT": 0}, "tle": {"line1": "1 66811U 25278W   25348.25003472 -.01339060  00000+0 -70051-2 0  9999", "line2": "2 66811  42.9974 242.7272 0001844 277.3825 140.1579 15.82751398  3207"}}, "geometry": {"type": "Point", "coordinates": [117.77967984585239, -39.08807246235046]}}, {"type": "Feature", "properties": {"norad_id": 66812, "name": "STARLINK-36054", "group": "last-30-days", "lat": -40.42884439101513, "lon": 123.20806306933899, "alt_km": 332.15992073663983, "timestamp": "2025-12-15T04:01:19.181164+00:00", "meta": {"OBJECT_NAME": "STARLINK-36054", "OBJECT_ID": "2025-278X", "EPOCH": "2025-12-14T06:00:02.999808", "MEAN_MOTION": 15.82718578, "ECCENTRICITY": 0.00018036, "INCLINATION": 42.9974, "RA_OF_ASC_NODE": 242.7157, "ARG_OF_PERICENTER": 278.5976, "MEAN_ANOMALY": 143.4871, "EPHEMERIS_TYPE": 0, "CLASSIFICATION_TYPE": "U", "NORAD_CAT_ID": 66812, "ELEMENT_SET_NO": 999, "REV_AT_EPOCH": 320, "BSTAR": -0.007081552, "MEAN_MOTION_DOT": -0.01349942, "MEAN_MOTION_DDOT": 0}, "tle": {"line1": "1 66812U 25278X   25348.25003472 -.01349942  00000+0 -70816-2 0  9999", "line2": "2 66812  42.9974 242.7157 0001803 278.5976 143.4871 15.82718578  3209"}}, "geometry": {"type": "Point", "coordinates": [123.20806306933899, -40.42884439101513]}}, {"type": "Feature", "properties": {"norad_id": 66813, "name": "STARLINK-36042", "group": "last-30-days", "lat": -40.96338647515171, "lon": 125.80117374015555, "alt_km": 332.1962194422558, "timestamp": "2025-12-15T04:01:19.181174+00:00", "meta": {"OBJECT_NAME": "STARLINK-36042", "OBJECT_ID": "2025-278Y", "EPOCH": "2025-12-14T06:00:02.999808", "MEAN_MOTION": 15.82721098, "ECCENTRICITY": 0.00017756, "INCLINATION": 42.9974, "RA_OF_ASC_NODE": 242.7102, "ARG_OF_PERICENTER": 279.288, "MEAN_ANOMALY": 144.8472, "EPHEMERIS_TYPE": 0, "CLASSIFICATION_TYPE": "U", "NORAD_CAT_ID": 66813, "ELEMENT_SET_NO": 999, "REV_AT_EPOCH": 320, "BSTAR": -0.0071055076, "MEAN_MOTION_DOT": -0.01354049, "MEAN_MOTION_DDOT": 0}, "tle": {"line1": "1 66813U 25278Y   25348.25003472 -.01354049  00000+0 -71055-2 0  9990", "line2": "2 66813  42.9974 242.7102 0001775 279.2880 144.8472 15.82721098  3203"}}, "geometry": {"type": "Point", "coordinates": [125.80117374015555, -40.96338647515171]}}, {"type": "Feature", "properties": {"norad_id": 66814, "name": "STARLINK-35984", "group": "last-30-days", "lat": -42.94956121680968, "lon": 144.57391034383832, "alt_km": 332.95096145083426, "timestamp": "2025-12-15T04:01:19.181185+00:00", "meta": {"OBJECT_NAME": "STARLINK-35984", "OBJECT_ID": "2025-278Z", "EPOCH": "2025-12-14T06:00:02.999808", "MEAN_MOTION": 15.82509309, "ECCENTRICITY": 0.00017392, "INCLINATION": 42.9973, "RA_OF_ASC_NODE": 242.672, "ARG_OF_PERICENTER": 274.59, "MEAN_ANOMALY": 164.5318, "EPHEMERIS_TYPE": 0, "CLASSIFICATION_TYPE": "U", "NORAD_CAT_ID": 66814, "ELEMENT_SET_NO": 999, "REV_AT_EPOCH": 329, "BSTAR": -0.0074662586, "MEAN_MOTION_DOT": -0.01429347, "MEAN_MOTION_DDOT": 0}, "tle": {"line1": "1 66814U 25278Z   25348.25003472 -.01429347  00000+0 -74663-2 0  9993", "line2": "2 66814  42.9973 242.6720 0001739 274.5900 164.5318 15.82509309  3295"}}, "geometry": {"type": "Point", "coordinates": [144.57391034383832, -42.94956121680968]}}, {"type": "Feature", "properties": {"norad_id": 66815, "name": "STARLINK-35985", "group": "last-30-days", "lat": -42.851227699107575, "lon": 141.7097629779482, "alt_km": 332.9610995781786, "timestamp": "2025-12-15T04:01:19.181195+00:00", "meta": {"OBJECT_NAME": "STARLINK-35985", "OBJECT_ID": "2025-278AA", "EPOCH": "2025-12-14T06:00:02.999808", "MEAN_MOTION": 15.8251603, "ECCENTRICITY": 0.00017726, "INCLINATION": 42.9969, "RA_OF_ASC_NODE": 242.6772, "ARG_OF_PERICENTER": 278.5335, "MEAN_ANOMALY": 158.4627, "EPHEMERIS_TYPE": 0, "CLASSIFICATION_TYPE": "U", "NORAD_CAT_ID": 66815, "ELEMENT_SET_NO": 999, "REV_AT_EPOCH": 329, "BSTAR": -0.0074652037, "MEAN_MOTION_DOT": -0.01429596, "MEAN_MOTION_DDOT": 0}, "tle": {"line1": "1 66815U 25278AA  25348.25003472 -.01429596  00000+0 -74652-2 0  9998", "line2": "2 66815  42.9969 242.6772 0001772 278.5335 158.4627 15.82516030  3295"}}, "geometry": {"type": "Point", "coordinates": [141.7097629779482, -42.851227699107575]}}, {"type": "Feature", "properties": {"norad_id": 66816, "name": "STARLINK-36098", "group": "last-30-days", "lat": -41.48335876119257, "lon": 128.70310217361052, "alt_km": 332.22666891245717, "timestamp": "2025-12-15T04:01:19.181205+00:00", "meta": {"OBJECT_NAME": "STARLINK-36098", "OBJECT_ID": "2025-278AB", "EPOCH": "2025-12-14T06:00:02.999808", "MEAN_MOTION": 15.82700939, "ECCENTRICITY": 0.00017582, "INCLINATION": 42.9974, "RA_OF_ASC_NODE": 242.7043, "ARG_OF_PERICENTER": 274.7691, "MEAN_ANOMALY": 151.7123, "EPHEMERIS_TYPE": 0, "CLASSIFICATION_TYPE": "U", "NORAD_CAT_ID": 66816, "ELEMENT_SET_NO": 999, "REV_AT_EPOCH": 304, "BSTAR": -0.0071643363, "MEAN_MOTION_DOT": -0.01362664, "MEAN_MOTION_DDOT": 0}, "tle": {"line1": "1 66816U 25278AB  25348.25003472 -.01362664  00000+0 -71643-2 0  9998", "line2": "2 66816  42.9974 242.7043 0001758 274.7691 151.7123 15.82700939  3044"}}, "geometry": {"type": "Point", "coordinates": [128.70310217361052, -41.48335876119257]}}, {"type": "Feature", "properties": {"norad_id": 66817, "name": "STARLINK-35995", "group": "last-30-days", "lat": -42.33158881273003, "lon": 134.94100531299205, "alt_km": 332.50055111763413, "timestamp": "2025-12-15T04:01:19.181217+00:00", "meta": {"OBJECT_NAME": "STARLINK-35995", "OBJECT_ID": "2025-278AC", "EPOCH": "2025-12-14T06:00:02.999808", "MEAN_MOTION": 15.82631782, "ECCENTRICITY": 0.00018062, "INCLINATION": 42.9974, "RA_OF_ASC_NODE": 242.6917, "ARG_OF_PERICENTER": 276.3967, "MEAN_ANOMALY": 155.1162, "EPHEMERIS_TYPE": 0, "CLASSIFICATION_TYPE": "U", "NORAD_CAT_ID": 66817, "ELEMENT_SET_NO": 999, "REV_AT_EPOCH": 320, "BSTAR": -0.0073015847, "MEAN_MOTION_DOT": -0.01408609, "MEAN_MOTION_DDOT": 0}, "tle": {"line1": "1 66817U 25278AC  25348.25003472 -.01408609  00000+0 -73016-2 0  9995", "line2": "2 66817  42.9974 242.6917 0001806 276.3967 155.1162 15.82631782  3200"}}, "geometry": {"type": "Point", "coordinates": [134.94100531299205, -42.33158881273003]}}]}